#aV2022 10  8  0  0  0.00000000     288 DD+AD WGS84 FIT  NGA
## 2230 518400.00000000   300.00000000 59860 0.0000000000000
+   32     1  2  3  4  5  6  7  8  9 10 11 12 13 14 15 16 17
+         18 19 20 21 22 23 24 25 26 27 28 29 30 31 32  0  0
+          0  0  0  0  0  0  0  0  0  0  0  0  0  0  0  0  0
+          0  0  0  0  0  0  0  0  0  0  0  0  0  0  0  0  0
+          0  0  0  0  0  0  0  0  0  0  0  0  0  0  0  0  0
++         2  2  2  2  2  2  2  2  2  2  2  2  2  2  2  2  2
++         2  2  2  2  2  2  2  2  2  2  2  2  2  2  2  0  0
++         0  0  0  0  0  0  0  0  0  0  0  0  0  0  0  0  0
++         0  0  0  0  0  0  0  0  0  0  0  0  0  0  0  0  0
++         0  0  0  0  0  0  0  0  0  0  0  0  0  0  0  0  0
%c cc cc ccc ccc cccc cccc cccc cccc ccccc ccccc ccccc ccccc
%c cc cc ccc ccc cccc cccc cccc cccc ccccc ccccc ccccc ccccc
%f  0.0000000  0.000000000  0.00000000000  0.000000000000000
%f  0.0000000  0.000000000  0.00000000000  0.000000000000000
%i    0    0    0    0      0      0      0      0         0
%i    0    0    0    0      0      0      0      0         0
/*      NGA, ST. LOUIS,MO.                                  
/*   EPHEMERIS COMPUTED FROM 2 DAYS OF DATA                 
/*   EPOCHA v8 SMOOTHER                                     
/*   G2139 IERS2010 SATIGS SATAPC                           
*  2022 10  8 23 10  0.00000000
P  1 -20414.822563 -14194.535614 -10114.202477    270.660042                    
V  1  12012.897894   2744.577579 -28663.624705     -0.061805                    
P  2  17777.827832  14373.209947  14031.953685   -643.120976                    
V  2 -16774.819293  -2136.796682  24735.169700      0.015041                    
P  3 -11771.563136 -21251.649369  10740.807561   -362.231984                    
V  3   -787.710393 -13888.989294 -27914.372251     -0.045771                    
P  4 -11999.781167  -9665.386070  21644.731219   -106.620396                    
V  4  20996.101683 -17707.395882   3635.734468      0.059832                    
P  5   6467.374486  25689.760415    -56.531176    -99.658113                    
V  5  -2828.987488    565.369221  31870.623657     -0.014502                    
P  6 -14521.215595   9197.922958  20329.647695    485.563062                    
V  6 -23978.480108  -8948.247767 -13047.550812      0.111990                    
P  7 -25831.755738  -5734.563199  -3980.140052    300.589564                    
V  7  -4350.411606  -4329.703059  30690.277377     -0.036613                    
P  8  -3108.816891 -16585.959604 -20460.013533    -87.994590                    
V  8  19810.305379 -16852.496915  11025.552873     -0.017152                    
P  9 -19901.580764   1549.821307  17463.434282   -285.793580                    
V  9  15205.634235 -16449.240179  18662.405934      0.051008                    
P 10  12564.264958  -9744.526885 -21066.076143     -6.684356                    
V 10   6286.528294  26398.915733  -8702.707335     -0.016641                    
P 11  -2740.313762  15090.923722  21688.479675    -23.745810                    
V 11 -25712.673260  -9813.386246   3543.399140     -0.040918                    
P 12  10132.984216  22184.044205  10377.498511   -289.993309                    
V 12   -501.499249  13709.740085 -27996.198197     -0.043442                    
P 13  -6485.941341  18867.626356 -17610.369752    402.479548                    
V 13 -19239.047412  10939.251703  19170.660923      0.070854                    
P 14 -14075.837546   7553.947637 -21195.517427    -96.929851                    
V 14  -5109.235405 -26506.665905  -6161.409174      0.036368                    
P 15   5673.586491  16575.359217 -20331.974404    -22.492096                    
V 15 -17370.489252  18077.004106  10405.871059      0.031358                    
P 16    863.894559 -25677.037547   5424.240668   -525.900378                    
V 16   3761.871015   6949.520893  31182.517985     -0.006488                    
P 17 -22569.422343  12539.416116  -5925.906316    666.901101                    
V 17   4986.903222  -6730.920027 -30882.731111      0.036540                    
P 18  25506.708565   4633.547711  -6116.666332     21.405538                    
V 18   6531.125301   4680.220639  30666.476602     -0.132520                    
P 19 -19769.409820  17091.813952   3662.849528    221.253422                    
V 19  -5523.109787    809.934210 -31807.330411      0.050558                    
P 20  -1496.930256  23072.852348  13282.483582    479.947302                    
V 20  -8268.458219 -14827.643860  24614.314525     -0.031061                    
P 21 -14552.460707 -15122.151478 -16095.215278    158.323447                    
V 21  21068.286307   3499.933449 -20802.627944     -0.005978                    
P 22  17292.602514 -18954.209983   6918.665148    342.195183                    
V 22   8255.990722  -2780.479041 -30253.915360      0.069311                    
P 23  15566.730163   2010.855695 -21453.613019     -0.855400                    
V 23   5755.486192  26555.833217   6540.088894     -0.002963                    
P 24  17959.264457  14715.471456 -13593.869040    107.057947                    
V 24 -16737.391608  -1570.809135 -23979.014336     -0.142153                    
P 25  15452.582829  11944.404956  17830.602763    380.396193                    
V 25   3258.211277  22972.028976 -17650.863793      0.039530                    
P 26   5749.120937 -20987.537960  14916.037025    231.730235                    
V 26   7715.776036  17910.065348  22416.731782      0.014315                    
P 27   8583.926624 -20657.108220 -14221.310732    201.064836                    
V 27  14732.543496 -10262.250813  24553.994033     -0.059024                    
P 28 -10036.336275  17229.873974 -17162.927382    331.294186                    
V 28  -4070.232916 -22368.987901 -19269.629683     -0.043166                    
P 29  19165.391162    936.363391  18357.244035   -558.111894                    
V 29 -17852.904735  15053.220833  17748.652065     -0.030504                    
P 30 -22224.139649   3361.166104 -14253.957124   -537.226057                    
V 30 -16367.693010  -8392.227269  23137.286698     -0.000235                    
P 31  14137.095036 -10024.267770  20101.325474   -196.128090                    
V 31  23920.792448   9564.694149 -11512.361517     -0.013156                    
P 32  21136.771870 -15396.125643  -3852.064822   -257.400501                    
V 32  -1766.662620   5665.892422 -31330.330808     -0.118036                    
EOF
